{"type": "FeatureCollection", "features": [ {"type": "Feature", "properties": {"norad_id": 33867, "name": "IRIDIUM 33 DEB", "group": "iridium-33-debris", "lat": -18.736904865367872, "lon": -16.940928497572582, "alt_km": 266.38554100867896, "timestamp": "2025-12-23T16:57:12.738906+00:00", "meta": {"OBJECT_NAME": "IRIDIUM 33 DEB", "OBJECT_ID": "1997-051AL", "EPOCH": "2025-12-22T23:02:25.741824", "MEAN_MOTION": 15.97980336, "ECCENTRICITY": 0.0012699, "INCLINATION": 86.3647, "RA_OF_ASC_NODE": 344.7018, "ARG_OF_PERICENTER": 106.1209, "MEAN_ANOMALY": 254.1476, "EPHEMERIS_TYPE": 0, "CLASSIFICATION_TYPE": "U", "NORAD_CAT_ID": 33867, "ELEMENT_SET_NO": 999, "REV_AT_EPOCH": 89672, "BSTAR": 0.0099960664, "MEAN_MOTION_DOT": 0.03779635, "MEAN_MOTION_DDOT": 0.018529358}, "tle": {"line1": "1 33867U 97051AL  25356.96002016  .03779635  18529-1  99961-2 0  9996", "line2": "2 33867  86.3647 344.7018 0012699 106.1209 254.1476 15.97980336896728"}}, "geometry": {"type": "Point", "coordinates": [-16.940928497572582, -18.736904865367872]}}, {"type": "Feature", "properties": {"norad_id": 33870, "name": "IRIDIUM 33 DEB", "group": "iridium-33-debris", "lat": 46.79130020313662, "lon": -130.31144606423288, "alt_km": 719.2653877696739, "timestamp": "2025-12-23T16:57:12.738917+00:00", "meta": {"OBJECT_NAME": "IRIDIUM 33 DEB", "OBJECT_ID": "1997-051AP", "EPOCH": "2025-12-23T04:59:30.895872", "MEAN_MOTION": 14.45900909, "ECCENTRICITY": 0.00225031, "INCLINATION": 86.3735, "RA_OF_ASC_NODE": 53.7735, "ARG_OF_PERICENTER": 144.8377, "MEAN_ANOMALY": 275.5744, "EPHEMERIS_TYPE": 0, "CLASSIFICATION_TYPE": "U", "NORAD_CAT_ID": 33870, "ELEMENT_SET_NO": 999, "REV_AT_EPOCH": 88288, "BSTAR": 0.00068782741, "MEAN_MOTION_DOT": 2.471e-05, "MEAN_MOTION_DDOT": 0}, "tle": {"line1": "1 33870U 97051AP  25357.20799648  .00002471  00000+0  68783-3 0  9998", "line2": "2 33870  86.3735  53.7735 0022503 144.8377 275.5744 14.45900909882880"}}, "geometry": {"type": "Point", "coordinates": [-130.31144606423288, 46.79130020313662]}}, {"type": "Feature", "properties": {"norad_id": 33881, "name": "IRIDIUM 33 DEB", "group": "iridium-33-debris", "lat": 65.7187740947667, "lon": 110.02851442876816, "alt_km": 684.489893307974, "timestamp": "2025-12-23T16:57:12.738928+00:00", "meta": {"OBJECT_NAME": "IRIDIUM 33 DEB", "OBJECT_ID": "1997-051BA", "EPOCH": "2025-12-22T19:48:34.710336", "MEAN_MOTION": 14.56741878, "ECCENTRICITY": 0.00612167, "INCLINATION": 86.3868, "RA_OF_ASC_NODE": 102.3597, "ARG_OF_PERICENTER": 142.0862, "MEAN_ANOMALY": 347.3767, "EPHEMERIS_TYPE": 0, "CLASSIFICATION_TYPE": "U", "NORAD_CAT_ID": 33881, "ELEMENT_SET_NO": 999, "REV_AT_EPOCH": 87647, "BSTAR": 0.0020565617, "MEAN_MOTION_DOT": 9.456e-05, "MEAN_MOTION_DDOT": 0}, "tle": {"line1": "1 33881U 97051BA  25356.82540174  .00009456  00000+0  20566-2 0  9991", "line2": "2 33881  86.3868 102.3597 0061216 142.0862 347.3767 14.56741878876470"}}, "geometry": {"type": "Point", "coordinates": [110.02851442876816, 65.7187740947667]}}, {"type": "Feature", "properties": {"norad_id": 33884, "name": "IRIDIUM 33 DEB", "group": "iridium-33-debris", "lat": 63.94139011005939, "lon": 177.40573968795917, "alt_km": 636.7893430504819, "timestamp": "2025-12-23T16:57:12.738939+00:00", "meta": {"OBJECT_NAME": "IRIDIUM 33 DEB", "OBJECT_ID": "1997-051BD", "EPOCH": "2025-12-21T19:42:17.168256", "MEAN_MOTION": 14.77591703, "ECCENTRICITY": 0.00089767, "INCLINATION": 86.3691, "RA_OF_ASC_NODE": 5.7181, "ARG_OF_PERICENTER": 287.8241, "MEAN_ANOMALY": 245.5748, "EPHEMERIS_TYPE": 0, "CLASSIFICATION_TYPE": "U", "NORAD_CAT_ID": 33884, "ELEMENT_SET_NO": 999, "REV_AT_EPOCH": 88981, "BSTAR": 0.0012315655, "MEAN_MOTION_DOT": 8.831e-05, "MEAN_MOTION_DDOT": 0}, "tle": {"line1": "1 33884U 97051BD  25355.82103204  .00008831  00000+0  12316-2 0  9992", "line2": "2 33884  86.3691   5.7181 0008976 287.8241 245.5748 14.77591703889818"}}, "geometry": {"type": "Point", "coordinates": [177.40573968795917, 63.94139011005939]}}, {"type": "Feature", "properties": {"norad_id": 33886, "name": "IRIDIUM 33 DEB", "group": "iridium-33-debris", "lat": -26.620995365070588, "lon": -115.57011105729735, "alt_km": 767.8557415348796, "timestamp": "2025-12-23T16:57:12.738949+00:00", "meta": {"OBJECT_NAME": "IRIDIUM 33 DEB", "OBJECT_ID": "1997-051BF", "EPOCH": "2025-12-23T04:32:11.836032", "MEAN_MOTION": 14.36063492, "ECCENTRICITY": 0.00132665, "INCLINATION": 86.3821, "RA_OF_ASC_NODE": 62.8304, "ARG_OF_PERICENTER": 204.4595, "MEAN_ANOMALY": 209.0672, "EPHEMERIS_TYPE": 0, "CLASSIFICATION_TYPE": "U", "NORAD_CAT_ID": 33886, "ELEMENT_SET_NO": 999, "REV_AT_EPOCH": 88202, "BSTAR": 0.00017557026, "MEAN_MOTION_DOT": 5.3e-06, "MEAN_MOTION_DDOT": 0}, "tle": {"line1": "1 33886U 97051BF  25357.18902588  .00000530  00000+0  17557-3 0  9998", "line2": "2 33886  86.3821  62.8304 0013266 204.4595 209.0672 14.36063492882022"}}, "geometry": {"type": "Point", "coordinates": [-115.57011105729735, -26.620995365070588]}}, {"type": "Feature", "properties": {"norad_id": 33887, "name": "IRIDIUM 33 DEB", "group": "iridium-33-debris", "lat": -8.973658127876254, "lon": 179.25079600216174, "alt_km": 767.8572935784223, "timestamp": "2025-12-23T16:57:12.738960+00:00", "meta": {"OBJECT_NAME": "IRIDIUM 33 DEB", "OBJECT_ID": "1997-051BG", "EPOCH": "2025-12-23T01:18:50.417280", "MEAN_MOTION": 14.37229907, "ECCENTRICITY": 0.00055483, "INCLINATION": 86.3042, "RA_OF_ASC_NODE": 358.9467, "ARG_OF_PERICENTER": 186.4101, "MEAN_ANOMALY": 232.9503, "EPHEMERIS_TYPE": 0, "CLASSIFICATION_TYPE": "U", "NORAD_CAT_ID": 33887, "ELEMENT_SET_NO": 999, "REV_AT_EPOCH": 88313, "BSTAR": 0.00013990077, "MEAN_MOTION_DOT": 4.36e-06, "MEAN_MOTION_DDOT": 0}, "tle": {"line1": "1 33887U 97051BG  25357.05475020  .00000436  00000+0  13990-3 0  9993", "line2": "2 33887  86.3042 358.9467 0005548 186.4101 232.9503 14.37229907883130"}}, "geometry": {"type": "Point", "coordinates": [179.25079600216174, -8.973658127876254]}}, {"type": "Feature", "properties": {"norad_id": 33953, "name": "IRIDIUM 33 DEB", "group": "iridium-33-debris", "lat": 39.554861956753825, "lon": 52.013679937714116, "alt_km": 694.011339863614, "timestamp": "2025-12-23T16:57:12.738971+00:00", "meta": {"OBJECT_NAME": "IRIDIUM 33 DEB", "OBJECT_ID": "1997-051BN", "EPOCH": "2025-12-22T04:44:25.619136", "MEAN_MOTION": 14.55406947, "ECCENTRICITY": 0.00178347, "INCLINATION": 86.3836, "RA_OF_ASC_NODE": 49.6744, "ARG_OF_PERICENTER": 73.9809, "MEAN_ANOMALY": 345.1929, "EPHEMERIS_TYPE": 0, "CLASSIFICATION_TYPE": "U", "NORAD_CAT_ID": 33953, "ELEMENT_SET_NO": 999, "REV_AT_EPOCH": 88441, "BSTAR": 0.0010994661, "MEAN_MOTION_DOT": 4.805e-05, "MEAN_MOTION_DDOT": 0}, "tle": {"line1": "1 33953U 97051BN  25356.19751874  .00004805  00000+0  10995-2 0  9990", "line2": "2 33953  86.3836  49.6744 0017834  73.9809 345.1929 14.55406947884415"}}, "geometry": {"type": "Point", "coordinates": [52.013679937714116, 39.554861956753825]}}, {"type": "Feature", "properties": {"norad_id": 33960, "name": "IRIDIUM 33 DEB", "group": "iridium-33-debris", "lat": -49.949384495909506, "lon": -80.12734049302603, "alt_km": 618.5000085084221, "timestamp": "2025-12-23T16:57:12.738982+00:00", "meta": {"OBJECT_NAME": "IRIDIUM 33 DEB", "OBJECT_ID": "1997-051BV", "EPOCH": "2025-12-22T20:25:56.627904", "MEAN_MOTION": 14.85668232, "ECCENTRICITY": 0.00072159, "INCLINATION": 86.2544, "RA_OF_ASC_NODE": 284.7457, "ARG_OF_PERICENTER": 44.6643, "MEAN_ANOMALY": 15.2245, "EPHEMERIS_TYPE": 0, "CLASSIFICATION_TYPE": "U", "NORAD_CAT_ID": 33960, "ELEMENT_SET_NO": 999, "REV_AT_EPOCH": 89017, "BSTAR": 0.0029026593, "MEAN_MOTION_DOT": 0.00025254, "MEAN_MOTION_DDOT": 0}, "tle": {"line1": "1 33960U 97051BV  25356.85134986  .00025254  00000+0  29027-2 0  9997", "line2": "2 33960  86.2544 284.7457 0007215  44.6643  15.2245 14.85668232890170"}}, "geometry": {"type": "Point", "coordinates": [-80.12734049302603, -49.949384495909506]}}, {"type": "Feature", "properties": {"norad_id": 33966, "name": "IRIDIUM 33 DEB", "group": "iridium-33-debris", "lat": -61.00570002363436, "lon": 34.78097240596055, "alt_km": 739.0815447489795, "timestamp": "2025-12-23T16:57:12.738993+00:00", "meta": {"OBJECT_NAME": "IRIDIUM 33 DEB", "OBJECT_ID": "1997-051CB", "EPOCH": "2025-12-23T04:16:14.623392", "MEAN_MOTION": 14.49632542, "ECCENTRICITY": 0.00085683, "INCLINATION": 86.391, "RA_OF_ASC_NODE": 41.5472, "ARG_OF_PERICENTER": 155.6053, "MEAN_ANOMALY": 267.1436, "EPHEMERIS_TYPE": 0, "CLASSIFICATION_TYPE": "U", "NORAD_CAT_ID": 33966, "ELEMENT_SET_NO": 999, "REV_AT_EPOCH": 88593, "BSTAR": 0.0004536532, "MEAN_MOTION_DOT": 1.763e-05, "MEAN_MOTION_DDOT": 0}, "tle": {"line1": "1 33966U 97051CB  25357.17794703  .00001763  00000+0  45365-3 0  9991", "line2": "2 33966  86.3910  41.5472 0008568 155.6053 267.1436 14.49632542885933"}}, "geometry": {"type": "Point", "coordinates": [34.78097240596055, -61.00570002363436]}}, {"type": "Feature", "properties": {"norad_id": 34071, "name": "IRIDIUM 33 DEB", "group": "iridium-33-debris", "lat": -0.03690813194534577, "lon": 13.05883182331334, "alt_km": 728.7961494132251, "timestamp": "2025-12-23T16:57:12.739003+00:00", "meta": {"OBJECT_NAME": "IRIDIUM 33 DEB", "OBJECT_ID": "1997-051CE", "EPOCH": "2025-12-23T00:23:08.786688", "MEAN_MOTION": 14.49508043, "ECCENTRICITY": 0.00098999, "INCLINATION": 86.3448, "RA_OF_ASC_NODE": 13.3612, "ARG_OF_PERICENTER": 79.9113, "MEAN_ANOMALY": 280.3208, "EPHEMERIS_TYPE": 0, "CLASSIFICATION_TYPE": "U", "NORAD_CAT_ID": 34071, "ELEMENT_SET_NO": 999, "REV_AT_EPOCH": 88483, "BSTAR": 0.00055260456, "MEAN_MOTION_DOT": 2.138e-05, "MEAN_MOTION_DDOT": 0}, "tle": {"line1": "1 34071U 97051CE  25357.01607392  .00002138  00000+0  55260-3 0  9991", "line2": "2 34071  86.3448  13.3612 0009899  79.9113 280.3208 14.49508043884833"}}, "geometry": {"type": "Point", "coordinates": [13.05883182331334, -0.03690813194534577]}}]}